sat06306
1 06306U 72097B   20046.83337932 -.00000029  00000-0  30985-4 0  9991
2 06306  99.8397 337.2276 0270035 355.1968  66.9129 12.88407933218375
